IRIDIUM 113             
1 42803U 17039A   26187.84531213  .00000315  00000+0  10559-3 0  9999
2 42803  86.3988 313.9615 0002138  90.7058 269.4383 14.34217150474000
IRIDIUM 123             
1 42804U 17039B   26187.53794808  .00000289  00000+0  96210-4 0  9996
2 42804  86.3985 345.5470 0002041  92.4590 267.6840 14.34217272472721
IRIDIUM 126             
1 42809U 17039G   26187.47452360  .00000104  00000+0  30163-4 0  9999
2 42809  86.3984 345.5799 0002134  87.3863 272.7577 14.34217986472713
IRIDIUM 180             
1 43922U 19002A   26187.53160744  .00000187  00000+0  59565-4 0  9995
2 43922  86.3982 345.5097 0002240  91.0192 269.1260 14.34217376391761
IRIDIUM 171             
1 43929U 19002H   26187.48720851  .00000091  00000+0  25298-4 0  9997
2 43929  86.3992 345.8107 0002186  94.6756 265.4689 14.34218495391721
IRIDIUM 167             
1 43931U 19002K   26187.48086583  .00000060  00000+0  14477-4 0  9990
2 43931  86.3984 345.5275 0002139  98.9932 261.1506 14.34218223391729
